{
  "type": "FeatureCollection",
  "features": [
    {
      "type": "Feature",
      "properties": {
        "norad_id": 36696,
        "name": "FENGYUN 1C DEB",
        "group": "fengyun-1c-debris",
        "lat": -39.097785816777325,
        "lon": 16.482099933794697,
        "alt_km": 752.9796324734934,
        "timestamp": "2025-12-25T11:37:44.724025+00:00",
        "meta_object_name": "FENGYUN 1C DEB",
        "meta_object_id": "1999-025DZS",
        "meta_epoch": "2025-12-20T18:21:37.280448",
        "meta_mean_motion": 14.39290248,
        "meta_eccentricity": 0.0022773,
        "meta_inclination": 98.991,
        "meta_ra_of_asc_node": 4.1437,
        "meta_arg_of_pericenter": 304.9139,
        "meta_mean_anomaly": 54.9908,
        "meta_ephemeris_type": 0,
        "meta_classification_type": "U",
        "meta_norad_cat_id": 36696,
        "meta_element_set_no": 999,
        "meta_rev_at_epoch": 64511,
        "meta_bstar": 0.0012348867,
        "meta_mean_motion_dot": 3.799e-05,
        "meta_mean_motion_ddot": 0,
        "tle_line1": "1 36696U 99025DZS 25354.76501482  .00003799  00000+0  12349-2 0  9995",
        "tle_line2": "2 36696  98.9910   4.1437 0022773 304.9139  54.9908 14.39290248645111"
      },
      "geometry": {
        "type": "Point",
        "coordinates": [
          16.482099933794697,
          -39.097785816777325
        ]
      }
    },
    {
      "type": "Feature",
      "properties": {
        "norad_id": 36699,
        "name": "FENGYUN 1C DEB",
        "group": "fengyun-1c-debris",
        "lat": 27.37103281938729,
        "lon": -10.814170946855924,
        "alt_km": 780.822619692156,
        "timestamp": "2025-12-25T11:37:44.724035+00:00",
        "meta_object_name": "FENGYUN 1C DEB",
        "meta_object_id": "1999-025DZV",
        "meta_epoch": "2025-12-23T05:32:53.455200",
        "meta_mean_motion": 14.24305286,
        "meta_eccentricity": 0.00948854,
        "meta_inclination": 98.5593,
        "meta_ra_of_asc_node": 351.4625,
        "meta_arg_of_pericenter": 99.8572,
        "meta_mean_anomaly": 261.3335,
        "meta_ephemeris_type": 0,
        "meta_classification_type": "U",
        "meta_norad_cat_id": 36699,
        "meta_element_set_no": 999,
        "meta_rev_at_epoch": 73476,
        "meta_bstar": 0.00021503407,
        "meta_mean_motion_dot": 4.78e-06,
        "meta_mean_motion_ddot": 0,
        "tle_line1": "1 36699U 99025DZV 25357.23117425  .00000478  00000+0  21503-3 0  9997",
        "tle_line2": "2 36699  98.5593 351.4625 0094885  99.8572 261.3335 14.24305286734769"
      },
      "geometry": {
        "type": "Point",
        "coordinates": [
          -10.814170946855924,
          27.37103281938729
        ]
      }
    },
    {
      "type": "Feature",
      "properties": {
        "norad_id": 36701,
        "name": "FENGYUN 1C DEB",
        "group": "fengyun-1c-debris",
        "lat": 74.94312827127689,
        "lon": -99.32936834656088,
        "alt_km": 1136.770212709629,
        "timestamp": "2025-12-25T11:37:44.724045+00:00",
        "meta_object_name": "FENGYUN 1C DEB",
        "meta_object_id": "1999-025DZX",
        "meta_epoch": "2025-12-21T02:09:26.635104",
        "meta_mean_motion": 13.71361429,
        "meta_eccentricity": 0.02585974,
        "meta_inclination": 102.7462,
        "meta_ra_of_asc_node": 312.1401,
        "meta_arg_of_pericenter": 234.4511,
        "meta_mean_anomaly": 123.2265,
        "meta_ephemeris_type": 0,
        "meta_classification_type": "U",
        "meta_norad_cat_id": 36701,
        "meta_element_set_no": 999,
        "meta_rev_at_epoch": 61253,
        "meta_bstar": 0.0014689907,
        "meta_mean_motion_dot": 1.603e-05,
        "meta_mean_motion_ddot": 0,
        "tle_line1": "1 36701U 99025DZX 25355.08989161  .00001603  00000+0  14690-2 0  9995",
        "tle_line2": "2 36701 102.7462 312.1401 0258597 234.4511 123.2265 13.71361429612534"
      },
      "geometry": {
        "type": "Point",
        "coordinates": [
          -99.32936834656088,
          74.94312827127689
        ]
      }
    },
    {
      "type": "Feature",
      "properties": {
        "norad_id": 36707,
        "name": "FENGYUN 1C DEB",
        "group": "fengyun-1c-debris",
        "lat": -43.39839259709168,
        "lon": 53.77540868567659,
        "alt_km": 863.7415777795723,
        "timestamp": "2025-12-25T11:37:44.724055+00:00",
        "meta_object_name": "FENGYUN 1C DEB",
        "meta_object_id": "1999-025EAD",
        "meta_epoch": "2025-12-21T21:25:47.185536",
        "meta_mean_motion": 14.17337167,
        "meta_eccentricity": 0.00496219,
        "meta_inclination": 98.751,
        "meta_ra_of_asc_node": 41.8648,
        "meta_arg_of_pericenter": 96.1028,
        "meta_mean_anomaly": 264.5804,
        "meta_ephemeris_type": 0,
        "meta_classification_type": "U",
        "meta_norad_cat_id": 36707,
        "meta_element_set_no": 999,
        "meta_rev_at_epoch": 64209,
        "meta_bstar": 0.00072069372,
        "meta_mean_motion_dot": 1.432e-05,
        "meta_mean_motion_ddot": 0,
        "tle_line1": "1 36707U 99025EAD 25355.89290724  .00001432  00000+0  72069-3 0  9995",
        "tle_line2": "2 36707  98.7510  41.8648 0049621  96.1028 264.5804 14.17337167642094"
      },
      "geometry": {
        "type": "Point",
        "coordinates": [
          53.77540868567659,
          -43.39839259709168
        ]
      }
    },
    {
      "type": "Feature",
      "properties": {
        "norad_id": 36710,
        "name": "FENGYUN 1C DEB",
        "group": "fengyun-1c-debris",
        "lat": -78.3022213218904,
        "lon": 101.93807280938694,
        "alt_km": 767.2758502975021,
        "timestamp": "2025-12-25T11:37:44.724065+00:00",
        "meta_object_name": "FENGYUN 1C DEB",
        "meta_object_id": "1999-025EAG",
        "meta_epoch": "2025-12-15T10:11:57.749280",
        "meta_mean_motion": 14.49882943,
        "meta_eccentricity": 0.00679739,
        "meta_inclination": 98.3812,
        "meta_ra_of_asc_node": 46.5328,
        "meta_arg_of_pericenter": 173.535,
        "meta_mean_anomaly": 186.6737,
        "meta_ephemeris_type": 0,
        "meta_classification_type": "U",
        "meta_norad_cat_id": 36710,
        "meta_element_set_no": 999,
        "meta_rev_at_epoch": 64992,
        "meta_bstar": 0.00098752348,
        "meta_mean_motion_dot": 3.884e-05,
        "meta_mean_motion_ddot": 0,
        "tle_line1": "1 36710U 99025EAG 25349.42497395  .00003884  00000+0  98752-3 0  9994",
        "tle_line2": "2 36710  98.3812  46.5328 0067973 173.5350 186.6737 14.49882943649924"
      },
      "geometry": {
        "type": "Point",
        "coordinates": [
          101.93807280938694,
          -78.3022213218904
        ]
      }
    },
    {
      "type": "Feature",
      "properties": {
        "norad_id": 36711,
        "name": "FENGYUN 1C DEB",
        "group": "fengyun-1c-debris",
        "lat": 2.229668494393953,
        "lon": -157.43259503893898,
        "alt_km": 681.3417174969481,
        "timestamp": "2025-12-25T11:37:44.724075+00:00",
        "meta_object_name": "FENGYUN 1C DEB",
        "meta_object_id": "1999-025EAH",
        "meta_epoch": "2025-12-22T19:33:17.805888",
        "meta_mean_motion": 14.42563106,
        "meta_eccentricity": 0.01001116,
        "meta_inclination": 100.8026,
        "meta_ra_of_asc_node": 18.7671,
        "meta_arg_of_pericenter": 180.6159,
        "meta_mean_anomaly": 179.4915,
        "meta_ephemeris_type": 0,
        "meta_classification_type": "U",
        "meta_norad_cat_id": 36711,
        "meta_element_set_no": 999,
        "meta_rev_at_epoch": 64456,
        "meta_bstar": 0.0021992157,
        "meta_mean_motion_dot": 7.693e-05,
        "meta_mean_motion_ddot": 0,
        "tle_line1": "1 36711U 99025EAH 25356.81478942  .00007693  00000+0  21992-2 0  9996",
        "tle_line2": "2 36711 100.8026  18.7671 0100111 180.6159 179.4915 14.42563106644564"
      },
      "geometry": {
        "type": "Point",
        "coordinates": [
          -157.43259503893898,
          2.229668494393953
        ]
      }
    },
    {
      "type": "Feature",
      "properties": {
        "norad_id": 36716,
        "name": "FENGYUN 1C DEB",
        "group": "fengyun-1c-debris",
        "lat": -75.98773746386551,
        "lon": 57.745472899081825,
        "alt_km": 894.3098270662667,
        "timestamp": "2025-12-25T11:37:44.724085+00:00",
        "meta_object_name": "FENGYUN 1C DEB",
        "meta_object_id": "1999-025EAN",
        "meta_epoch": "2025-12-24T13:38:03.454656",
        "meta_mean_motion": 13.8842033,
        "meta_eccentricity": 0.01483644,
        "meta_inclination": 99.2293,
        "meta_ra_of_asc_node": 277.4949,
        "meta_arg_of_pericenter": 196.842,
        "meta_mean_anomaly": 162.7782,
        "meta_ephemeris_type": 0,
        "meta_classification_type": "U",
        "meta_norad_cat_id": 36716,
        "meta_element_set_no": 999,
        "meta_rev_at_epoch": 63095,
        "meta_bstar": 0.00021899669,
        "meta_mean_motion_dot": 2.42e-06,
        "meta_mean_motion_ddot": 0,
        "tle_line1": "1 36716U 99025EAN 25358.56809554  .00000242  00000+0  21900-3 0  9995",
        "tle_line2": "2 36716  99.2293 277.4949 0148364 196.8420 162.7782 13.88420330630955"
      },
      "geometry": {
        "type": "Point",
        "coordinates": [
          57.745472899081825,
          -75.98773746386551
        ]
      }
    }
  ]
}